GLOBALSTAR M063         
1 26081U 00008A   25150.28269914 -.00000081  00000+0  20278-4 0  9991
2 26081  51.9919 158.7266 0004783 282.4482  91.3906 11.86174542155457
GLOBALSTAR M062         
1 26082U 00008B   25151.23166223 -.00000096  00000+0  14297-4 0  9997
2 26082  51.9818 145.6431 0007000  74.1715 299.5079 12.43467732157012
GLOBALSTAR M060         
1 26083U 00008C   25150.17765707 -.00000080  00000+0  10807-3 0  9997
2 26083  52.0005 106.2007 0003377  81.3857  20.2997 12.17661486150176
GLOBALSTAR M064         
1 26084U 00008D   25150.98722406 -.00000030  00000+0  76361-3 0  9998
2 26084  52.0030 255.9016 0001220  49.0116 311.0822 11.88534549165160
GLOBALSTAR M065         
1 31571U 07020A   25150.56844124 -.00000063  00000+0  22960-3 0  9994
2 31571  51.9900 279.8940 0009587 267.7331 173.4956 12.62008480831187
GLOBALSTAR M069         
1 31573U 07020C   25151.06276066 -.00000062  00000+0  27433-3 0  9995
2 31573  51.9949 253.8788 0001583 160.4326  11.5299 12.31002770831954
GLOBALSTAR M072         
1 31574U 07020D   25150.97049733 -.00000064  00000+0  26854-3 0  9992
2 31574  51.9955  37.8031 0000768 335.7389  37.7970 11.91649316829415
GLOBALSTAR M071         
1 31576U 07020F   25150.57524840 -.00000042  00000+0  48786-3 0  9991
2 31576  52.0066 280.1794 0001350  97.9267 343.9576 12.18254712492794
